H1 CPF  1  DGF 2022 09 08 10  7511 larets     NONE      
H2   304206 5557    27944 2022 09 08 00 00 00 2022 09 15 00 00 00    30 1 1  0 0 0
H5  0.0650
H9
10 0 59835  68400.000000  0      -1846579.029       6598199.030       1673168.117
10 0 59835  68430.000000  0      -1784967.522       6556446.266       1889113.228
10 0 59835  68460.000000  0      -1721735.952       6507742.156       2103119.889
10 0 59835  68490.000000  0      -1656979.046       6452129.477       2314968.538
10 0 59835  68520.000000  0      -1590792.905       6389658.544       2524441.860
10 0 59835  68550.000000  0      -1523274.863       6320387.160       2731325.019
10 0 59835  68580.000000  0      -1454523.358       6244380.559       2935405.885
10 0 59835  68610.000000  0      -1384637.792       6161711.337       3136475.258
10 0 59835  68640.000000  0      -1313718.398       6072459.378       3334327.083
10 0 59835  68670.000000  0      -1241866.101       5976711.768       3528758.674
10 0 59835  68700.000000  0      -1169182.385       5874562.703       3719570.920
10 0 59835  68730.000000  0      -1095769.156       5766113.391       3906568.495
10 0 59835  68760.000000  0      -1021728.607       5651471.941       4089560.068
10 0 59835  68790.000000  0       -947163.076       5530753.246       4268358.505
10 0 59835  68820.000000  0       -872174.910       5404078.852       4442781.060
10 0 59835  68850.000000  0       -796866.326       5271576.819       4612649.566
10 0 59835  68880.000000  0       -721339.274       5133381.575       4777790.610
10 0 59835  68910.000000  0       -645695.304       4989633.774       4938035.706
10 0 59835  68940.000000  0       -570035.433       4840480.141       5093221.455
10 0 59835  68970.000000  0       -494460.017       4686073.317       5243189.715
10 0 59835  69000.000000  0       -419068.623       4526571.700       5387787.757
10 0 59835  69030.000000  0       -343959.900       4362139.269       5526868.425
10 0 59835  69060.000000  0       -269231.459       4192945.407       5660290.281
10 0 59835  69090.000000  0       -194979.743       4019164.715       5787917.748
10 0 59835  69120.000000  0       -121299.913       3840976.820       5909621.243
10 0 59835  69150.000000  0        -48285.721       3658566.174       6025277.301
10 0 59835  69180.000000  0         23970.597       3472121.863       6134768.691
10 0 59835  69210.000000  0         95378.441       3281837.397       6237984.530
10 0 59835  69240.000000  0        165848.952       3087910.510       6334820.385
10 0 59835  69270.000000  0        235295.122       2890542.945       6425178.380
10 0 59835  69300.000000  0        303631.900       2689940.238       6508967.282
10 0 59835  69330.000000  0        370776.290       2486311.501       6586102.593
10 0 59835  69360.000000  0        436647.454       2279869.196       6656506.627
10 0 59835  69390.000000  0        501166.801       2070828.908       6720108.585
10 0 59835  69420.000000  0        564258.086       1859409.114       6776844.612
10 0 59835  69450.000000  0        625847.489       1645830.951       6826657.863
10 0 59835  69480.000000  0        685863.705       1430317.984       6869498.543
10 0 59835  69510.000000  0        744238.024       1213095.969       6905323.959
10 0 59835  69540.000000  0        800904.404        994392.616       6934098.550
10 0 59835  69570.000000  0        855799.547        774437.352       6955793.921
10 0 59835  69600.000000  0        908862.970        553461.081       6970388.869
10 0 59835  69630.000000  0        960037.069        331695.942       6977869.399
10 0 59835  69660.000000  0       1009267.177        109375.064       6978228.739
10 0 59835  69690.000000  0       1056501.628       -113267.684       6971467.345
10 0 59835  69720.000000  0       1101691.801       -335997.937       6957592.895
10 0 59835  69750.000000  0       1144792.179       -558581.085       6936620.279
10 0 59835  69780.000000  0       1185760.387       -780782.518       6908571.577
10 0 59835  69810.000000  0       1224557.240      -1002367.873       6873476.037
10 0 59835  69840.000000  0       1261146.772      -1223103.274       6831370.045
10 0 59835  69870.000000  0       1295496.272      -1442755.589       6782297.088
10 0 59835  69900.000000  0       1327576.312      -1661092.670       6726307.713
10 0 59835  69930.000000  0       1357360.772      -1877883.603       6663459.472
10 0 59835  69960.000000  0       1384826.857      -2092898.950       6593816.865
10 0 59835  69990.000000  0       1409955.116      -2305910.996       6517451.276
10 0 59835  70020.000000  0       1432729.453      -2516693.989       6434440.898
10 0 59835  70050.000000  0       1453137.128      -2725024.382       6344870.662
10 0 59835  70080.000000  0       1471168.765      -2930681.074       6248832.142
10 0 59835  70110.000000  0       1486818.341      -3133445.641       6146423.469
10 0 59835  70140.000000  0       1500083.188      -3333102.571       6037749.232
10 0 59835  70170.000000  0       1510963.977      -3529439.493       5922920.370
10 0 59835  70200.000000  0       1519464.706      -3722247.406       5802054.063
10 0 59835  70230.000000  0       1525592.682      -3911320.896       5675273.616
10 0 59835  70260.000000  0       1529358.495      -4096458.362       5542708.336
10 0 59835  70290.000000  0       1530775.993      -4277462.230       5404493.409
10 0 59835  70320.000000  0       1529862.253      -4454139.169       5260769.763
10 0 59835  70350.000000  0       1526637.542      -4626300.300       5111683.934
10 0 59835  70380.000000  0       1521125.280      -4793761.407       4957387.913
10 0 59835  70410.000000  0       1513351.995      -4956343.135       4798039.007
10 0 59835  70440.000000  0       1503347.279      -5113871.196       4633799.668
10 0 59835  70470.000000  0       1491143.732      -5266176.556       4464837.339
10 0 59835  70500.000000  0       1476776.909      -5413095.627       4291324.277
10 0 59835  70530.000000  0       1460285.260      -5554470.448       4113437.380
10 0 59835  70560.000000  0       1441710.067      -5690148.856       3931358.004
10 0 59835  70590.000000  0       1421095.379      -5819984.653       3745271.779
10 0 59835  70620.000000  0       1398487.936      -5943837.774       3555368.420
10 0 59835  70650.000000  0       1373937.101      -6061574.436       3361841.535
10 0 59835  70680.000000  0       1347494.778      -6173067.288       3164888.427
10 0 59835  70710.000000  0       1319215.335      -6278195.558       2964709.891
10 0 59835  70740.000000  0       1289155.517      -6376845.185       2761510.017
10 0 59835  70770.000000  0       1257374.362      -6468908.952       2555495.971
10 0 59835  70800.000000  0       1223933.107      -6554286.609       2346877.790
10 0 59835  70830.000000  0       1188895.097      -6632884.981       2135868.161
10 0 59835  70860.000000  0       1152325.689      -6704618.080       1922682.201
10 0 59835  70890.000000  0       1114292.151      -6769407.197       1707537.240
10 0 59835  70920.000000  0       1074863.569      -6827180.999       1490652.593
10 0 59835  70950.000000  0       1034110.739      -6877875.606       1272249.331
10 0 59835  70980.000000  0        992106.066      -6921434.670       1052550.055
10 0 59835  71010.000000  0        948923.451      -6957809.436        831778.661
10 0 59835  71040.000000  0        904638.188      -6986958.805        610160.109
10 0 59835  71070.000000  0        859326.840      -7008849.382        387920.182
10 0 59835  71100.000000  0        813067.136      -7023455.504        165285.248
10 0 59835  71130.000000  0        765937.849      -7030759.275        -57517.974
10 0 59835  71160.000000  0        718018.684      -7030750.576       -280262.651
10 0 59835  71190.000000  0        669390.163      -7023427.077       -502722.072
10 0 59835  71220.000000  0        620133.507      -7008794.242       -724669.880
10 0 59835  71250.000000  0        570330.518      -6986865.313       -945880.312
10 0 59835  71280.000000  0        520063.463      -6957661.295      -1166128.426
10 0 59835  71310.000000  0        469414.954      -6921210.933      -1385190.334
10 0 59835  71340.000000  0        418467.833      -6877550.676      -1602843.432
10 0 59835  71370.000000  0        367305.051      -6826724.633      -1818866.625
10 0 59835  71400.000000  0        316009.552      -6768784.528      -2033040.560
10 0 59835  71430.000000  0        264664.154      -6703789.635      -2245147.842
10 0 59835  71460.000000  0        213351.436      -6631806.714      -2454973.263
10 0 59835  71490.000000  0        162153.614      -6552909.935      -2662304.016
10 0 59835  71520.000000  0        111152.434      -6467180.793      -2866929.913
10 0 59835  71550.000000  0         60429.051      -6374708.016      -3068643.598
10 0 59835  71580.000000  0         10063.917      -6275587.469      -3267240.758
10 0 59835  71610.000000  0        -39863.331      -6169922.039      -3462520.327
10 0 59835  71640.000000  0        -89273.979      -6057821.524      -3654284.689
10 0 59835  71670.000000  0       -138090.352      -5939402.505      -3842339.876
10 0 59835  71700.000000  0       -186235.915      -5814788.220      -4026495.756
10 0 59835  71730.000000  0       -233635.381      -5684108.419      -4206566.225
10 0 59835  71760.000000  0       -280214.815      -5547499.232      -4382369.381
10 0 59835  71790.000000  0       -325901.732      -5405103.009      -4553727.711
10 0 59835  71820.000000  0       -370625.199      -5257068.174      -4720468.258
10 0 59835  71850.000000  0       -414315.930      -5103549.060      -4882422.789
10 0 59835  71880.000000  0       -456906.381      -4944705.741      -5039427.965
10 0 59835  71910.000000  0       -498330.842      -4780703.860      -5191325.491
10 0 59835  71940.000000  0       -538525.522      -4611714.450      -5337962.272
10 0 59835  71970.000000  0       -577428.639      -4437913.752      -5479190.558
99
